satname,norad_id,inclination_deg,eccentricity,mean_motion_rev_per_day,perigee_km,apogee_km,l1,l2
STARLINK-1351,45697,53.0433,0.000174,15.67044005,366.1929039745719,368.54033923488987,1 45697U 20035AS  26164.59314064  .00050056  00000+0  46325-3 0  9990,2 45697  53.0433 274.0788 0001740 160.3951 199.7131 15.67044005334344
STARLINK-1400,45700,53.0425,0.0002138,15.65750618,369.6378727043066,372.52383825931065,1 45700U 20035AV  26164.86742264  .00046461  00000+0  45346-3 0  9999,2 45700  53.0425 275.3504 0002138  43.6459 316.4724 15.65750618334346
STARLINK-1403,45701,53.1548,0.0001581,15.34532919,461.22673105749254,463.3896798314545,1 45701U 20035AW  26164.69050642  .00047122  00000+0  13911-2 0  9990,2 45701  53.1548 310.0040 0001581 257.1296 102.9530 15.34532919333854
STARLINK-1407,45703,53.0264,0.000698,15.75172272,339.44885605260424,348.83315614912135,1 45703U 20035AY  26164.82125255  .00121082  00000+0  78399-3 0  9990,2 45703  53.0264 201.7248 0006980  43.5074 316.6494 15.75172272335374
STARLINK-1411,45706,53.0247,0.0011664,15.99154563,269.0009234285544,284.5254746128294,1 45706U 20035BB  26164.83335647  .00569589  15231-3  11361-2 0  9991,2 45706  53.0247 222.0127 0011664   2.3184 210.9291 15.99154563  5891
STARLINK-1423,45710,53.0426,0.0004622,15.6988771,356.10425479453806,362.3322659972482,1 45710U 20035BF  26164.59238515  .00059372  00000+0  48755-3 0  9991,2 45710  53.0426 272.9761 0004622  98.4537 261.7003 15.69887710334341
STARLINK-1433,45711,53.0431,0.0004219,15.69437835,357.6626616667136,363.3487283727718,1 45711U 20035BG  26164.83429293  .00057067  00000+0  47778-3 0  9997,2 45711  53.0431 270.4011 0004219 105.8089 254.3393 15.69437835334402
STARLINK-1434,45712,53.0508,0.0001109,15.35034761,460.05880687978606,461.57568693174926,1 45712U 20035BH  26164.66418103  .00044623  00000+0  12975-2 0  9991,2 45712  53.0508 292.6108 0001109  75.2704 284.8420 15.35034761334098
STARLINK-1465,45731,53.0437,0.000137,15.69090006,360.5781896182225,362.42485057272916,1 45731U 20038B   26164.59371509  .00060544  00000+0  51385-3 0  9994,2 45731  53.0437 117.1913 0001370 103.6264 256.4905 15.69090006331330
STARLINK-1471,45735,53.0457,0.000263,15.5386124,403.6807982976716,407.2489728894934,1 45735U 20038F   26164.82479494  .00026370  00000+0  40866-3 0  9997,2 45735  53.0457  39.6786 0002630 136.5180 223.6037 15.53861240332459
STARLINK-1480,45741,53.0469,0.0006245,15.65867964,366.52898479074884,374.95833673604193,1 45741U 20038M   26164.14350085  .00051778  00000+0  50169-3 0  9990,2 45741  53.0469 113.2429 0006245  51.2980 308.8592 15.65867964331362
STARLINK-1500,45744,53.0343,0.0001907,15.39476392,446.3549303517957,448.95828803434324,1 45744U 20038Q   26164.05522383  .00027889  00000+0  70790-3 0  9993,2 45744  53.0343 103.7407 0001907 131.8294 228.2872 15.39476392331480
STARLINK-1504,45746,53.0205,0.0002896,15.59508483,387.11882341585897,391.0383946966231,1 45746U 20038S   26164.88123741  .00035203  00000+0  44010-3 0  9996,2 45746  53.0205  35.8724 0002896 122.3614 237.7678 15.59508483332495
STARLINK-1506,45747,53.0755,0.0001749,15.28441455,479.2712309780318,481.6703719869902,1 45747U 20038T   26164.58443635  .00019688  00000+0  71235-3 0  9999,2 45747  53.0755 117.9517 0001749 165.9909 194.1139 15.28441455331346
STARLINK-1464,45751,53.0457,0.0004709,15.54446843,400.56746951515925,406.9546611130736,1 45751U 20038X   26164.07805069  .00029488  00000+0  44625-3 0  9993,2 45751  53.0457 107.0708 0004709  56.7505 303.3956 15.54446843331447
STARLINK-1477,45754,53.0443,0.0001538,15.191912,507.2245660653771,509.3428290719503,1 45754U 20038AA  26164.63532552  .00022276  00000+0  10574-2 0  9995,2 45754  53.0443 135.2133 0001538  17.6061 342.4986 15.19191200331093
STARLINK-1478,45755,53.0442,0.0004481,15.69053114,358.5870831213606,364.6272418397757,1 45755U 20038AB  26164.04757877  .00058078  00000+0  49383-3 0  9990,2 45755  53.0442  91.4200 0004481  94.0285 266.1243 15.69053114331643
STARLINK-1493,45759,53.0457,0.0006677,15.65682185,366.77093365366636,375.7841018006393,1 45759U 20038AF  26164.84797384  .00054294  00000+0  52948-3 0  9996,2 45759  53.0457  97.3083 0006677  49.8516 310.3082 15.65682185331635
STARLINK-1494,45760,53.0291,0.0009957,16.26848725,194.47130672684762,207.5730443089742,1 45760U 20038AG  26164.67210345  .02369154  11993-4  66770-3 0  9998,2 45760  53.0291  23.5243 0009957 264.9501  95.0404 16.26848725332650
STARLINK-1502,45764,53.0439,0.0005379,15.62782799,375.9879359660117,383.2579341041228,1 45764U 20038AL  26164.52803038  .00082544  00000+0  89666-3 0  9997,2 45764  53.0439 102.8143 0005379  23.8571 336.2691 15.62782799331543
STARLINK-1470,45772,53.044,0.0003978,15.35766258,455.9257722468601,461.36511635954867,1 45772U 20038AU  26164.50789567  .00038495  00000+0  10957-2 0  9996,2 45772  53.0440  86.8356 0003978  58.1510 301.9879 15.35766258331761
STARLINK-1482,45773,53.1555,0.0004782,15.38309193,447.84316166244844,454.3746524479566,1 45773U 20038AV  26164.11874973  .00046932  00000+0  12271-2 0  9996,2 45773  53.1555 105.0579 0004782  50.1575 309.9850 15.38309193331499
STARLINK-1496,45780,53.0466,5.35e-05,15.69365784,360.3514164696353,361.0724733067382,1 45780U 20038BC  26164.47721262  .00062939  00000+0  52781-3 0  9991,2 45780  53.0466  73.3138 0000535 173.3287 186.7737 15.69365784331931
STARLINK-1513,45786,53.1606,0.0001348,15.31717609,469.7642826726569,471.6107257589947,1 45786U 20038BJ  26164.12255779 -.00000113  00000+0  81225-5 0  9998,2 45786  53.1606 107.2419 0001348  85.1115 275.0040 15.31717609331469
STARLINK-1522,46027,53.0644,0.0002897,15.13405275,523.8241819424002,527.8243370961645,1 46027U 20055A   26164.83808126  .00025516  00000+0  14241-2 0  9998,2 46027  53.0644  51.6755 0002897  67.8984 292.2315 15.13405275323421
STARLINK-1523,46028,53.1624,8.31e-05,15.30736877,473.0431396267113,474.1819003969358,1 46028U 20055B   26164.85893269  .00036123  00000+0  12057-2 0  9992,2 46028  53.1624  39.9797 0000831 120.0197 240.0887 15.30736877323621
STARLINK-1526,46029,53.1614,0.0001379,15.30192039,474.2937591051141,476.1839201616849,1 46029U 20055C   26164.85523466  .00005804  00000+0  20798-3 0  9996,2 46029  53.1614  40.0351 0001379  85.0328 275.0830 15.30192039323615
STARLINK-1555,46032,53.1604,0.0001465,15.30199946,474.211214551804,476.21924675538685,1 46032U 20055F   26164.83943194 -.00000438  00000+0 -26542-5 0  9997,2 46032  53.1604  40.0937 0001465  77.9658 282.1507 15.30199946323614
STARLINK-1556,46033,53.1585,0.0001394,15.30189931,474.2897723337801,476.20049527268384,1 46033U 20055G   26164.82258317 -.00004287  00000+0 -13273-3 0  9994,2 46033  53.1585  40.1857 0001394 126.5633 233.5496 15.30189931323586
STARLINK-1557,46034,53.1584,0.0001047,15.30196437,474.50816084021426,475.9432549912517,1 46034U 20055H   26164.82573957  .00002102  00000+0  83080-4 0  9991,2 46034  53.1584  40.1734 0001047  83.4922 276.6197 15.30196437323582
STARLINK-1558,46035,53.1595,0.0001779,15.30180981,474.052635877596,476.4910787490271,1 46035U 20055J   26164.83312076  .00000048  00000+0  13753-4 0  9993,2 46035  53.1595  40.1322 0001779  95.2364 264.8840 15.30180981323616
STARLINK-1560,46036,53.1597,0.0001056,15.3018312,474.54175121911885,475.98918982089253,1 46036U 20055K   26164.81943604 -.00000353  00000+0  20856-6 0  9993,2 46036  53.1597  40.2054 0001056 104.1669 255.9449 15.30183120323612
STARLINK-1569,46039,53.1616,0.0001534,15.30179502,474.2249598396129,476.327587031903,1 46039U 20055N   26164.83627729 -.00001186  00000+0 -27927-4 0  9995,2 46039  53.1616  40.1088 0001534  95.1423 264.9752 15.30179502323606
STARLINK-1582,46043,53.162,0.0001777,15.31697928,469.5291252171719,471.9632182964142,1 46043U 20055S   26164.84759598  .00001076  00000+0  46434-4 0  9991,2 46043  53.1620  39.3916 0001777 120.4252 239.6925 15.31697928323617
STARLINK-1591,46045,53.1602,0.0001275,15.30193676,474.36014701209115,476.1077566048025,1 46045U 20055U   26164.86893189  .00000391  00000+0  25316-4 0  9995,2 46045  53.1602  39.9702 0001275 125.9586 234.1533 15.30193676323593
STARLINK-1524,46047,53.1623,0.0001251,15.31689934,469.9132033462838,471.6267998780868,1 46047U 20055W   26164.88216883 -.00002773  00000+0 -77644-4 0  9998,2 46047  53.1623  26.5356 0001251  99.3562 260.7581 15.31689934323807
STARLINK-1527,46048,53.1608,0.0001029,15.31685809,470.0775443890343,471.4870519806,1 46048U 20055X   26164.87752079 -.00002221  00000+0 -59849-4 0  9995,2 46048  53.1608  26.5396 0001029  74.6251 285.4864 15.31685809323770
STARLINK-1540,46051,53.1594,0.000132,15.31701126,469.8325873599897,471.64069000060226,1 46051U 20055AA  26164.86355799  .00001584  00000+0  62809-4 0  9995,2 46051  53.1594  26.8139 0001320  90.6170 269.4983 15.31701126323818
STARLINK-1541,46052,53.1566,0.0005365,15.86501944,308.50965286231894,315.6882760521821,1 46052U 20055AB  26164.83335647  .00224434  00000+0  85082-3 0  9991,2 46052  53.1566   8.4587 0005365 265.7790 243.6695 15.86501944  5993
STARLINK-1543,46053,53.1595,0.0001544,15.31708407,469.65747177204867,471.7723972494259,1 46053U 20055AC  26164.83556644  .00003731  00000+0  13190-3 0  9990,2 46053  53.1595  26.7498 0001544  67.0067 293.1098 15.31708407323808
STARLINK-1548,46054,53.1587,9.82e-05,15.31701078,470.0642223602572,471.4093411709964,1 46054U 20055AD  26164.84955818  .00001386  00000+0  56414-4 0  9999,2 46054  53.1587  26.7525 0000982 100.3969 259.7143 15.31701078323804
STARLINK-1554,46055,53.1602,0.0001176,15.31698397,469.9393451928154,471.5502021859884,1 46055U 20055AE  26164.89615277 -.00005612  00000+0 -16922-3 0  9994,2 46055  53.1602  26.4875 0001176  86.7422 273.3714 15.31698397323811
STARLINK-1564,46058,53.1631,0.0001435,15.30185681,474.2743615485042,476.2412858629086,1 46058U 20055AH  26164.89162091 -.00000045  00000+0  10616-4 0  9997,2 46058  53.1631  27.5237 0001435  96.3482 263.7682 15.30185681323791
